ONEWEB-0528             
1 54643U 22166B   23330.84095488  .00000021  00000+0  18322-4 0  9998
2 54643  87.9255  69.7782 0001491 100.9885 259.1417 13.21827149 48240
ONEWEB-0539             
1 54644U 22166C   23330.80152341  .00000009  00000+0 -99481-5 0  9990
2 54644  87.9258  69.7855 0001688  94.9383 265.1944 13.21828314 48234
ONEWEB-0540             
1 54645U 22166D   23330.79600043  .00000027  00000+0  34203-4 0  9995
2 54645  87.9260  69.8133 0001601  92.5346 267.5972 13.21825800 48229
ONEWEB-0542             
1 54646U 22166E   23331.18945732  .00000040  00000+0  65585-4 0  9999
2 54646  87.9257  69.7090 0001992  87.9612 272.1750 13.21827764 48748
ONEWEB-0545             
1 54647U 22166F   23331.30774163  .00000107  00000+0  22767-3 0  9990
2 54647  87.9257  69.7262 0001658  84.2265 275.9058 13.21826240 48732
ONEWEB-0580             
1 54648U 22166G   23330.82674662 -.00000100  00000+0 -27329-3 0  9994
2 54648  87.9253  69.7758 0002086  86.3228 273.8145 13.21823818 48245
ONEWEB-0582             
1 54649U 22166H   23330.79365625  .00000009  00000+0 -10391-4 0  9996
2 54649  87.9259  69.8231 0001456  97.8759 262.2540 13.21825533 48219
ONEWEB-0583             
1 54650U 22166J   23330.80466224 -.00000135  00000+0 -35851-3 0  9995
2 54650  87.9256  69.8268 0001627 116.1809 243.9492 13.21827322 48220
